{
  "type": "FeatureCollection",
  "features": [
    {
      "type": "Feature",
      "properties": {
        "norad_id": 35043,
        "name": "COSMOS 2251 DEB",
        "group": "cosmos-2251-debris",
        "lat": 26.283642057050553,
        "lon": 40.99796190165774,
        "alt_km": 692.6333321743059,
        "timestamp": "2025-12-19T04:59:48.702721+00:00",
        "meta_object_name": "COSMOS 2251 DEB",
        "meta_object_id": "1993-036AHG",
        "meta_epoch": "2025-12-18T09:22:03.578880",
        "meta_mean_motion": 14.77234349,
        "meta_eccentricity": 0.00960967,
        "meta_inclination": 73.9519,
        "meta_ra_of_asc_node": 34.4369,
        "meta_arg_of_pericenter": 242.9214,
        "meta_mean_anomaly": 116.2132,
        "meta_ephemeris_type": 0,
        "meta_classification_type": "U",
        "meta_norad_cat_id": 35043,
        "meta_element_set_no": 999,
        "meta_rev_at_epoch": 67502,
        "meta_bstar": 0.0030540152,
        "meta_mean_motion_dot": 0.00023411,
        "meta_mean_motion_ddot": 0,
        "tle_line1": "1 35043U 93036AHG 25352.39031920  .00023411  00000+0  30540-2 0  9994",
        "tle_line2": "2 35043  73.9519  34.4369 0096096 242.9214 116.2132 14.77234349675024"
      },
      "geometry": {
        "type": "Point",
        "coordinates": [
          40.99796190165774,
          26.283642057050553
        ]
      }
    },
    {
      "type": "Feature",
      "properties": {
        "norad_id": 35045,
        "name": "COSMOS 2251 DEB",
        "group": "cosmos-2251-debris",
        "lat": -44.321600265113204,
        "lon": -122.13751337418276,
        "alt_km": 821.843235905948,
        "timestamp": "2025-12-19T04:59:48.702731+00:00",
        "meta_object_name": "COSMOS 2251 DEB",
        "meta_object_id": "1993-036AHJ",
        "meta_epoch": "2025-12-18T12:28:12.467136",
        "meta_mean_motion": 14.00398272,
        "meta_eccentricity": 0.01838556,
        "meta_inclination": 73.7195,
        "meta_ra_of_asc_node": 42.4957,
        "meta_arg_of_pericenter": 283.7134,
        "meta_mean_anomaly": 74.359,
        "meta_ephemeris_type": 0,
        "meta_classification_type": "U",
        "meta_norad_cat_id": 35045,
        "meta_element_set_no": 999,
        "meta_rev_at_epoch": 84724,
        "meta_bstar": 0.00055685486,
        "meta_mean_motion_dot": 9.27e-06,
        "meta_mean_motion_ddot": 0,
        "tle_line1": "1 35045U 93036AHJ 25352.51958874  .00000927  00000+0  55685-3 0  9991",
        "tle_line2": "2 35045  73.7195  42.4957 0183855 283.7134  74.3590 14.00398272847249"
      },
      "geometry": {
        "type": "Point",
        "coordinates": [
          -122.13751337418276,
          -44.321600265113204
        ]
      }
    },
    {
      "type": "Feature",
      "properties": {
        "norad_id": 35060,
        "name": "COSMOS 2251 DEB",
        "group": "cosmos-2251-debris",
        "lat": 13.3950118879553,
        "lon": -123.74365217422465,
        "alt_km": 746.4944825097864,
        "timestamp": "2025-12-19T04:59:48.702742+00:00",
        "meta_object_name": "COSMOS 2251 DEB",
        "meta_object_id": "1993-036AHP",
        "meta_epoch": "2025-12-17T09:37:48.798336",
        "meta_mean_motion": 14.41611034,
        "meta_eccentricity": 0.00186104,
        "meta_inclination": 74.0362,
        "meta_ra_of_asc_node": 235.6937,
        "meta_arg_of_pericenter": 321.6138,
        "meta_mean_anomaly": 38.3692,
        "meta_ephemeris_type": 0,
        "meta_classification_type": "U",
        "meta_norad_cat_id": 35060,
        "meta_element_set_no": 999,
        "meta_rev_at_epoch": 87309,
        "meta_bstar": 0.00026105938,
        "meta_mean_motion_dot": 8.25e-06,
        "meta_mean_motion_ddot": 0,
        "tle_line1": "1 35060U 93036AHP 25351.40125924  .00000825  00000+0  26106-3 0  9990",
        "tle_line2": "2 35060  74.0362 235.6937 0018610 321.6138  38.3692 14.41611034873096"
      },
      "geometry": {
        "type": "Point",
        "coordinates": [
          -123.74365217422465,
          13.3950118879553
        ]
      }
    },
    {
      "type": "Feature",
      "properties": {
        "norad_id": 35061,
        "name": "COSMOS 2251 DEB",
        "group": "cosmos-2251-debris",
        "lat": 29.49715161679272,
        "lon": 103.91819458371678,
        "alt_km": 673.9944565941369,
        "timestamp": "2025-12-19T04:59:48.702752+00:00",
        "meta_object_name": "COSMOS 2251 DEB",
        "meta_object_id": "1993-036AHQ",
        "meta_epoch": "2025-12-18T20:08:41.477280",
        "meta_mean_motion": 14.67877034,
        "meta_eccentricity": 0.00393832,
        "meta_inclination": 74.0463,
        "meta_ra_of_asc_node": 293.9431,
        "meta_arg_of_pericenter": 43.0699,
        "meta_mean_anomaly": 317.3541,
        "meta_ephemeris_type": 0,
        "meta_classification_type": "U",
        "meta_norad_cat_id": 35061,
        "meta_element_set_no": 999,
        "meta_rev_at_epoch": 88664,
        "meta_bstar": 0.00059884178,
        "meta_mean_motion_dot": 3.433e-05,
        "meta_mean_motion_ddot": 0,
        "tle_line1": "1 35061U 93036AHQ 25352.83936895  .00003433  00000+0  59884-3 0  9993",
        "tle_line2": "2 35061  74.0463 293.9431 0039383  43.0699 317.3541 14.67877034886642"
      },
      "geometry": {
        "type": "Point",
        "coordinates": [
          103.91819458371678,
          29.49715161679272
        ]
      }
    },
    {
      "type": "Feature",
      "properties": {
        "norad_id": 35062,
        "name": "COSMOS 2251 DEB",
        "group": "cosmos-2251-debris",
        "lat": -57.35781927032909,
        "lon": -71.89059976989539,
        "alt_km": 908.3126492500023,
        "timestamp": "2025-12-19T04:59:48.702762+00:00",
        "meta_object_name": "COSMOS 2251 DEB",
        "meta_object_id": "1993-036AHR",
        "meta_epoch": "2025-12-18T14:22:41.613600",
        "meta_mean_motion": 14.22978902,
        "meta_eccentricity": 0.01265686,
        "meta_inclination": 74.0798,
        "meta_ra_of_asc_node": 82.7408,
        "meta_arg_of_pericenter": 80.6943,
        "meta_mean_anomaly": 280.849,
        "meta_ephemeris_type": 0,
        "meta_classification_type": "U",
        "meta_norad_cat_id": 35062,
        "meta_element_set_no": 999,
        "meta_rev_at_epoch": 85582,
        "meta_bstar": 0.0011348569,
        "meta_mean_motion_dot": 2.751e-05,
        "meta_mean_motion_ddot": 0,
        "tle_line1": "1 35062U 93036AHR 25352.59909275  .00002751  00000+0  11349-2 0  9994",
        "tle_line2": "2 35062  74.0798  82.7408 0126568  80.6943 280.8490 14.22978902855823"
      },
      "geometry": {
        "type": "Point",
        "coordinates": [
          -71.89059976989539,
          -57.35781927032909
        ]
      }
    },
    {
      "type": "Feature",
      "properties": {
        "norad_id": 35065,
        "name": "COSMOS 2251 DEB",
        "group": "cosmos-2251-debris",
        "lat": 72.2990934249862,
        "lon": -61.620460167869034,
        "alt_km": 744.7253751482358,
        "timestamp": "2025-12-19T04:59:48.702772+00:00",
        "meta_object_name": "COSMOS 2251 DEB",
        "meta_object_id": "1993-036AHU",
        "meta_epoch": "2025-12-15T07:32:45.576096",
        "meta_mean_motion": 14.45733893,
        "meta_eccentricity": 0.00199052,
        "meta_inclination": 74.019,
        "meta_ra_of_asc_node": 189.5298,
        "meta_arg_of_pericenter": 314.3681,
        "meta_mean_anomaly": 45.5846,
        "meta_ephemeris_type": 0,
        "meta_classification_type": "U",
        "meta_norad_cat_id": 35065,
        "meta_element_set_no": 999,
        "meta_rev_at_epoch": 68388,
        "meta_bstar": 0.00034144119,
        "meta_mean_motion_dot": 1.186e-05,
        "meta_mean_motion_ddot": 0,
        "tle_line1": "1 35065U 93036AHU 25349.31441639  .00001186  00000+0  34144-3 0  9998",
        "tle_line2": "2 35065  74.0190 189.5298 0019905 314.3681  45.5846 14.45733893683886"
      },
      "geometry": {
        "type": "Point",
        "coordinates": [
          -61.620460167869034,
          72.2990934249862
        ]
      }
    },
    {
      "type": "Feature",
      "properties": {
        "norad_id": 35071,
        "name": "COSMOS 2251 DEB",
        "group": "cosmos-2251-debris",
        "lat": -39.81691822541192,
        "lon": -5.959509682846358,
        "alt_km": 608.1245823812706,
        "timestamp": "2025-12-19T04:59:48.702782+00:00",
        "meta_object_name": "COSMOS 2251 DEB",
        "meta_object_id": "1993-036AJA",
        "meta_epoch": "2025-12-15T18:34:31.974816",
        "meta_mean_motion": 15.0351885,
        "meta_eccentricity": 0.00682233,
        "meta_inclination": 73.9308,
        "meta_ra_of_asc_node": 167.1964,
        "meta_arg_of_pericenter": 62.71,
        "meta_mean_anomaly": 298.1014,
        "meta_ephemeris_type": 0,
        "meta_classification_type": "U",
        "meta_norad_cat_id": 35071,
        "meta_element_set_no": 999,
        "meta_rev_at_epoch": 67582,
        "meta_bstar": 0.00048026378,
        "meta_mean_motion_dot": 6.858e-05,
        "meta_mean_motion_ddot": 0,
        "tle_line1": "1 35071U 93036AJA 25349.77398119  .00006858  00000+0  48026-3 0  9994",
        "tle_line2": "2 35071  73.9308 167.1964 0068223  62.7100 298.1014 15.03518850675828"
      },
      "geometry": {
        "type": "Point",
        "coordinates": [
          -5.959509682846358,
          -39.81691822541192
        ]
      }
    }
  ]
}